start=new Date('2022-08-16T00:00:00.000Z').valueOf();
sats=[{"OBJECT_TYPE":"PAYLOAD","SEMIMAJOR_AXIS":"6925.354","BSTAR":"-0.00003707200000","CLASSIFICATION_TYPE":"U","MEAN_ELEMENT_THEORY":"SGP4","GP_ID":"210236429","OBJECT_ID":"2021-012BG","RA_OF_ASC_NODE":"138.8934","PERIOD":"95.592","ARG_OF_PERICENTER":"69.3929","ELEMENT_SET_NO":"999","TIME_SYSTEM":"UTC","TLE_LINE1":"1 47674U 21012BG  22227.15893337 -.00000834  00000-0 -37072-4 0  9998","EPHEMERIS_TYPE":"0","REV_AT_EPOCH":"8342","MEAN_ANOMALY":"290.7216","DECAY_DATE":null,"MEAN_MOTION_DDOT":"0.0000000000000","CENTER_NAME":"EARTH","LAUNCH_DATE":"2021-02-16","SITE":"AFETR","APOAPSIS":"548.226","TLE_LINE2":"2 47674  53.0555 138.8934 0001455  69.3929 290.7216 15.06398305 83426","MEAN_MOTION_DOT":"-0.00000834","COUNTRY_CODE":"US","MEAN_MOTION":"15.06398305","EPOCH":"2022-08-15T03:48:51.843168","PERIAPSIS":"546.211","OBJECT_NAME":"STARLINK-2067","ECCENTRICITY":"0.00014550","REF_FRAME":"TEME","FILE":"3536661","NORAD_CAT_ID":"47674","RCS_SIZE":"LARGE","INCLINATION":"53.0555"},{"OBJECT_TYPE":"PAYLOAD","BSTAR":"-0.00017287000000","SEMIMAJOR_AXIS":"6925.318","GP_ID":"210236428","MEAN_ELEMENT_THEORY":"SGP4","OBJECT_ID":"2021-012BH","CLASSIFICATION_TYPE":"U","PERIOD":"95.592","ARG_OF_PERICENTER":"82.0814","RA_OF_ASC_NODE":"138.9354","TIME_SYSTEM":"UTC","ELEMENT_SET_NO":"999","TLE_LINE1":"1 47675U 21012BH  22227.15250844 -.00002856  00000-0 -17287-3 0  9990","REV_AT_EPOCH":"8342","EPHEMERIS_TYPE":"0","MEAN_ANOMALY":"278.0322","CENTER_NAME":"EARTH","LAUNCH_DATE":"2021-02-16","SITE":"AFETR","DECAY_DATE":null,"MEAN_MOTION_DDOT":"0.0000000000000","APOAPSIS":"548.080","TLE_LINE2":"2 47675  53.0542 138.9354 0001295  82.0814 278.0322 15.06409987 83423","MEAN_MOTION_DOT":"-0.00002856","COUNTRY_CODE":"US","MEAN_MOTION":"15.06409987","EPOCH":"2022-08-15T03:39:36.729216","OBJECT_NAME":"STARLINK-2078","ECCENTRICITY":"0.00012950","PERIAPSIS":"546.286","REF_FRAME":"TEME","FILE":"3536661","INCLINATION":"53.0542","NORAD_CAT_ID":"47675","RCS_SIZE":"LARGE"},{"APOAPSIS":"548.165","TLE_LINE2":"2 47676  53.0535  25.9773 0001371  82.6802 277.4343 15.06399205 85568","MEAN_MOTION_DOT":"0.00002059","COUNTRY_CODE":"US","EPOCH":"2022-08-15T19:28:22.987488","MEAN_MOTION":"15.06399205","OBJECT_NAME":"STARLINK-2083","ECCENTRICITY":"0.00013710","PERIAPSIS":"546.267","REF_FRAME":"TEME","FILE":"3537378","INCLINATION":"53.0535","NORAD_CAT_ID":"47676","RCS_SIZE":"LARGE","OBJECT_TYPE":"PAYLOAD","SEMIMAJOR_AXIS":"6925.351","BSTAR":"0.00015706000000","GP_ID":"210298902","MEAN_ELEMENT_THEORY":"SGP4","OBJECT_ID":"2021-012BJ","CLASSIFICATION_TYPE":"U","PERIOD":"95.592","ARG_OF_PERICENTER":"82.6802","RA_OF_ASC_NODE":"25.9773","TIME_SYSTEM":"UTC","ELEMENT_SET_NO":"999","TLE_LINE1":"1 47676U 21012BJ  22227.81137717  .00002059  00000-0  15706-3 0  9994","REV_AT_EPOCH":"8556","EPHEMERIS_TYPE":"0","MEAN_ANOMALY":"277.4343","CENTER_NAME":"EARTH","LAUNCH_DATE":"2021-02-16","SITE":"AFETR","DECAY_DATE":null,"MEAN_MOTION_DDOT":"0.0000000000000"},{"RA_OF_ASC_NODE":"158.6921","PERIOD":"95.592","ARG_OF_PERICENTER":"63.4939","ELEMENT_SET_NO":"999","TIME_SYSTEM":"UTC","OBJECT_TYPE":"PAYLOAD","SEMIMAJOR_AXIS":"6925.353","BSTAR":"-0.00004109500000","CLASSIFICATION_TYPE":"U","MEAN_ELEMENT_THEORY":"SGP4","GP_ID":"210267066","OBJECT_ID":"2021-012BK","MEAN_ANOMALY":"296.6239","DECAY_DATE":null,"MEAN_MOTION_DDOT":"0.0000000000000","CENTER_NAME":"EARTH","LAUNCH_DATE":"2021-02-16","SITE":"AFETR","TLE_LINE1":"1 47677U 21012BK  22227.20501712 -.00000894  00000-0 -41095-4 0  9996","EPHEMERIS_TYPE":"0","REV_AT_EPOCH":"8366","MEAN_MOTION":"15.06398533","EPOCH":"2022-08-15T04:55:13.479168","PERIAPSIS":"545.940","OBJECT_NAME":"STARLINK-2090","ECCENTRICITY":"0.00018460","APOAPSIS":"548.496","TLE_LINE2":"2 47677  53.0543 158.6921 0001846  63.4939 296.6239 15.06398533 83661","MEAN_MOTION_DOT":"-0.00000894","COUNTRY_CODE":"US","NORAD_CAT_ID":"47677","RCS_SIZE":"LARGE","INCLINATION":"53.0543","REF_FRAME":"TEME","FILE":"3537056"},{"RCS_SIZE":"LARGE","NORAD_CAT_ID":"47679","INCLINATION":"53.0537","FILE":"3537056","REF_FRAME":"TEME","PERIAPSIS":"546.255","ECCENTRICITY":"0.00015000","OBJECT_NAME":"STARLINK-2095","MEAN_MOTION":"15.06373816","EPOCH":"2022-08-15T07:13:14.138976","COUNTRY_CODE":"US","MEAN_MOTION_DOT":"-0.00005247","TLE_LINE2":"2 47679  53.0537 158.2835 0001500  73.5104 286.6050 15.06373816 83699","APOAPSIS":"548.333","MEAN_MOTION_DDOT":"0.0000000000000","DECAY_DATE":null,"SITE":"AFETR","LAUNCH_DATE":"2021-02-16","CENTER_NAME":"EARTH","MEAN_ANOMALY":"286.6050","EPHEMERIS_TYPE":"0","REV_AT_EPOCH":"8369","TLE_LINE1":"1 47679U 21012BM  22227.30085809 -.00005247  00000-0 -33383-3 0  9990","ELEMENT_SET_NO":"999","TIME_SYSTEM":"UTC","RA_OF_ASC_NODE":"158.2835","ARG_OF_PERICENTER":"73.5104","PERIOD":"95.594","CLASSIFICATION_TYPE":"U","OBJECT_ID":"2021-012BM","GP_ID":"210267319","MEAN_ELEMENT_THEORY":"SGP4","SEMIMAJOR_AXIS":"6925.429","OBJECT_TYPE":"PAYLOAD","BSTAR":"-0.00033383000000"},{"EPOCH":"2022-08-15T13:01:37.169184","MEAN_MOTION":"15.06399773","PERIAPSIS":"546.209","ECCENTRICITY":"0.00014520","OBJECT_NAME":"STARLINK-2068","TLE_LINE2":"2 47722  53.0530 282.4167 0001452  78.8997 281.2155 15.06399773 81047","APOAPSIS":"548.220","COUNTRY_CODE":"US","MEAN_MOTION_DOT":"0.00001598","RCS_SIZE":"LARGE","NORAD_CAT_ID":"47722","INCLINATION":"53.0530","REF_FRAME":"TEME","FILE":"3537240","RA_OF_ASC_NODE":"282.4167","ARG_OF_PERICENTER":"78.8997","PERIOD":"95.592","ELEMENT_SET_NO":"999","TIME_SYSTEM":"UTC","SEMIMAJOR_AXIS":"6925.349","OBJECT_TYPE":"PAYLOAD","BSTAR":"0.00012612000000","CLASSIFICATION_TYPE":"U","OBJECT_ID":"2021-017A","MEAN_ELEMENT_THEORY":"SGP4","GP_ID":"210274138","MEAN_ANOMALY":"281.2155","MEAN_MOTION_DDOT":"0.0000000000000","DECAY_DATE":null,"SITE":"AFETR","CENTER_NAME":"EARTH","LAUNCH_DATE":"2021-03-04","TLE_LINE1":"1 47722U 21017A   22227.54279131  .00001598  00000-0  12612-3 0  9998","EPHEMERIS_TYPE":"0","REV_AT_EPOCH":"8104"},{"EPOCH":"2022-08-15T08:26:14.520480","MEAN_MOTION":"15.06403341","PERIAPSIS":"546.200","OBJECT_NAME":"STARLINK-2107","ECCENTRICITY":"0.00014490","APOAPSIS":"548.207","TLE_LINE2":"2 47723  53.0535 218.0523 0001449  74.5794 285.5354 15.06403341 82572","MEAN_MOTION_DOT":"0.00002456","COUNTRY_CODE":"US","NORAD_CAT_ID":"47723","RCS_SIZE":"LARGE","INCLINATION":"53.0535","REF_FRAME":"TEME","FILE":"3537056","RA_OF_ASC_NODE":"218.0523","PERIOD":"95.592","ARG_OF_PERICENTER":"74.5794","ELEMENT_SET_NO":"999","TIME_SYSTEM":"UTC","OBJECT_TYPE":"PAYLOAD","SEMIMAJOR_AXIS":"6925.338","BSTAR":"0.00018370000000","CLASSIFICATION_TYPE":"U","GP_ID":"210266829","MEAN_ELEMENT_THEORY":"SGP4","OBJECT_ID":"2021-017B","MEAN_ANOMALY":"285.5354","DECAY_DATE":null,"MEAN_MOTION_DDOT":"0.0000000000000","LAUNCH_DATE":"2021-03-04","CENTER_NAME":"EARTH","SITE":"AFETR","TLE_LINE1":"1 47723U 21017B   22227.35155695  .00002456  00000-0  18370-3 0  9997","EPHEMERIS_TYPE":"0","REV_AT_EPOCH":"8257"},{"RA_OF_ASC_NODE":"217.8825","PERIOD":"95.592","ARG_OF_PERICENTER":"73.7427","ELEMENT_SET_NO":"999","TIME_SYSTEM":"UTC","OBJECT_TYPE":"PAYLOAD","SEMIMAJOR_AXIS":"6925.349","BSTAR":"-0.00000685660000","CLASSIFICATION_TYPE":"U","GP_ID":"210271498","MEAN_ELEMENT_THEORY":"SGP4","OBJECT_ID":"2021-017C","MEAN_ANOMALY":"286.3717","DECAY_DATE":null,"MEAN_MOTION_DDOT":"0.0000000000000","LAUNCH_DATE":"2021-03-04","CENTER_NAME":"EARTH","SITE":"AFETR","TLE_LINE1":"1 47724U 21017C   22227.38841171 -.00000384  00000-0 -68566-5 0  9996","EPHEMERIS_TYPE":"0","REV_AT_EPOCH":"8192","MEAN_MOTION":"15.06399707","EPOCH":"2022-08-15T09:19:18.771744","PERIAPSIS":"546.241","OBJECT_NAME":"STARLINK-2116","ECCENTRICITY":"0.00014050","APOAPSIS":"548.187","TLE_LINE2":"2 47724  53.0541 217.8825 0001405  73.7427 286.3717 15.06399707 81928","MEAN_MOTION_DOT":"-0.00000384","COUNTRY_CODE":"US","NORAD_CAT_ID":"47724","RCS_SIZE":"LARGE","INCLINATION":"53.0541","REF_FRAME":"TEME","FILE":"3537067"},{"TLE_LINE1":"1 47725U 21017D   22227.68790599  .00001569  00000-0  12424-3 0  9991","EPHEMERIS_TYPE":"0","REV_AT_EPOCH":"8162","MEAN_ANOMALY":"281.8358","MEAN_MOTION_DDOT":"0.0000000000000","DECAY_DATE":null,"SITE":"AFETR","CENTER_NAME":"EARTH","LAUNCH_DATE":"2021-03-04","OBJECT_TYPE":"PAYLOAD","BSTAR":"0.00012424000000","SEMIMAJOR_AXIS":"6925.372","CLASSIFICATION_TYPE":"U","OBJECT_ID":"2021-017D","MEAN_ELEMENT_THEORY":"SGP4","GP_ID":"210297906","RA_OF_ASC_NODE":"286.5451","ARG_OF_PERICENTER":"78.2792","PERIOD":"95.593","ELEMENT_SET_NO":"999","TIME_SYSTEM":"UTC","REF_FRAME":"TEME","FILE":"3537378","RCS_SIZE":"LARGE","NORAD_CAT_ID":"47725","INCLINATION":"53.0535","TLE_LINE2":"2 47725  53.0535 286.5451 0001439  78.2792 281.8358 15.06392414 81628","APOAPSIS":"548.233","COUNTRY_CODE":"US","MEAN_MOTION_DOT":"0.00001569","MEAN_MOTION":"15.06392414","EPOCH":"2022-08-15T16:30:35.077536","PERIAPSIS":"546.240","ECCENTRICITY":"0.00014390","OBJECT_NAME":"STARLINK-2125"},{"SITE":"AFETR","CENTER_NAME":"EARTH","LAUNCH_DATE":"2021-03-04","MEAN_MOTION_DDOT":"0.0000000000000","DECAY_DATE":null,"MEAN_ANOMALY":"292.1445","REV_AT_EPOCH":"8102","EPHEMERIS_TYPE":"0","TLE_LINE1":"1 47726U 21017E   22227.87220060  .00000862  00000-0  76795-4 0  9991","TIME_SYSTEM":"UTC","ELEMENT_SET_NO":"999","ARG_OF_PERICENTER":"67.9686","PERIOD":"95.593","RA_OF_ASC_NODE":"285.7093","OBJECT_ID":"2021-017E","GP_ID":"210276538","MEAN_ELEMENT_THEORY":"SGP4","CLASSIFICATION_TYPE":"U","SEMIMAJOR_AXIS":"6925.374","OBJECT_TYPE":"PAYLOAD","BSTAR":"0.00007679500000","INCLINATION":"53.0550","RCS_SIZE":"LARGE","NORAD_CAT_ID":"47726","FILE":"3537350","REF_FRAME":"TEME","ECCENTRICITY":"0.00013320","OBJECT_NAME":"STARLINK-2126","PERIAPSIS":"546.317","MEAN_MOTION":"15.06391612","EPOCH":"2022-08-15T20:55:58.131840","COUNTRY_CODE":"US","MEAN_MOTION_DOT":"0.00000862","TLE_LINE2":"2 47726  53.0550 285.7093 0001332  67.9686 292.1445 15.06391612 81023","APOAPSIS":"548.162"}];
